start=new Date('2021-09-08T00:00:00.000Z').valueOf();
sats=[{"EPHEMERIS_TYPE":"0","FILE":"3110443","ELEMENT_SET_NO":"999","MEAN_MOTION_DDOT":"0.0000000000000","PERIOD":"95.592","COUNTRY_CODE":"US","MEAN_ELEMENT_THEORY":"SGP4","REV_AT_EPOCH":"7110","RCS_SIZE":"LARGE","DECAY_DATE":null,"OBJECT_ID":"2020-035Z","SITE":"AFETR","EPOCH":"2021-09-07T21:44:34.953504","OBJECT_TYPE":"PAYLOAD","OBJECT_NAME":"STARLINK-1395","TLE_LINE1":"1 45680U 20035Z   21250.90596011  .00000614  00000-0  60089-4 0  9992","MEAN_MOTION":"15.06400135","TLE_LINE2":"2 45680  53.0537 235.8595 0001176  49.8763 310.2329 15.06400135 71101","RA_OF_ASC_NODE":"235.8595","MEAN_ANOMALY":"310.2329","INCLINATION":"53.0537","ARG_OF_PERICENTER":"49.8763","TIME_SYSTEM":"UTC","LAUNCH_DATE":"2020-06-04","REF_FRAME":"TEME","PERIAPSIS":"546.399","APOAPSIS":"548.028","CENTER_NAME":"EARTH","CLASSIFICATION_TYPE":"U","MEAN_MOTION_DOT":"0.00000614","GP_ID":"184282064","SEMIMAJOR_AXIS":"6925.348","BSTAR":"0.00006008900000","ECCENTRICITY":"0.00011760","NORAD_CAT_ID":"45680"},{"MEAN_MOTION_DDOT":"0.0000000000000","PERIOD":"95.592","COUNTRY_CODE":"US","MEAN_ELEMENT_THEORY":"SGP4","REV_AT_EPOCH":"7108","RCS_SIZE":"LARGE","DECAY_DATE":null,"OBJECT_ID":"2020-035AA","SITE":"AFETR","OBJECT_TYPE":"PAYLOAD","EPOCH":"2021-09-07T16:52:39.328608","EPHEMERIS_TYPE":"0","FILE":"3110443","ELEMENT_SET_NO":"999","MEAN_MOTION":"15.06407133","TLE_LINE2":"2 45681  53.0527 236.7688 0000809  61.9250 298.1821 15.06407133 71085","RA_OF_ASC_NODE":"236.7688","OBJECT_NAME":"STARLINK-1396","TLE_LINE1":"1 45681U 20035AA  21250.70323297  .00000725  00000-0  67547-4 0  9994","TIME_SYSTEM":"UTC","LAUNCH_DATE":"2020-06-04","REF_FRAME":"TEME","MEAN_ANOMALY":"298.1821","INCLINATION":"53.0527","ARG_OF_PERICENTER":"61.9250","SEMIMAJOR_AXIS":"6925.327","BSTAR":"0.00006754700000","ECCENTRICITY":"0.00008090","NORAD_CAT_ID":"45681","PERIAPSIS":"546.631","APOAPSIS":"547.752","CENTER_NAME":"EARTH","MEAN_MOTION_DOT":"0.00000725","CLASSIFICATION_TYPE":"U","GP_ID":"184280812"},{"TLE_LINE1":"1 45682U 20035AB  21250.44523520  .00000775  00000-0  70889-4 0  9995","OBJECT_NAME":"STARLINK-1397","RA_OF_ASC_NODE":"237.9275","TLE_LINE2":"2 45682  53.0545 237.9275 0000928  54.2710 305.8365 15.06395084 70639","MEAN_MOTION":"15.06395084","ELEMENT_SET_NO":"999","EPHEMERIS_TYPE":"0","FILE":"3110346","OBJECT_ID":"2020-035AB","DECAY_DATE":null,"SITE":"AFETR","EPOCH":"2021-09-07T10:41:08.321280","OBJECT_TYPE":"PAYLOAD","RCS_SIZE":"LARGE","REV_AT_EPOCH":"7063","COUNTRY_CODE":"US","MEAN_ELEMENT_THEORY":"SGP4","PERIOD":"95.592","MEAN_MOTION_DDOT":"0.0000000000000","GP_ID":"184260176","CLASSIFICATION_TYPE":"U","MEAN_MOTION_DOT":"0.00000775","CENTER_NAME":"EARTH","APOAPSIS":"547.871","PERIAPSIS":"546.586","NORAD_CAT_ID":"45682","ECCENTRICITY":"0.00009280","BSTAR":"0.00007088900000","SEMIMAJOR_AXIS":"6925.364","ARG_OF_PERICENTER":"54.2710","MEAN_ANOMALY":"305.8365","INCLINATION":"53.0545","REF_FRAME":"TEME","LAUNCH_DATE":"2020-06-04","TIME_SYSTEM":"UTC"},{"SITE":"AFETR","EPOCH":"2021-09-07T16:36:43.729056","OBJECT_TYPE":"PAYLOAD","DECAY_DATE":null,"OBJECT_ID":"2020-035AC","RCS_SIZE":"LARGE","MEAN_ELEMENT_THEORY":"SGP4","COUNTRY_CODE":"US","REV_AT_EPOCH":"7108","PERIOD":"95.591","MEAN_MOTION_DDOT":"0.0000000000000","ELEMENT_SET_NO":"999","FILE":"3110443","EPHEMERIS_TYPE":"0","RA_OF_ASC_NODE":"236.8147","TLE_LINE2":"2 45683  53.0542 236.8147 0000930  43.0626 317.0435 15.06410652 71080","MEAN_MOTION":"15.06410652","TLE_LINE1":"1 45683U 20035AC  21250.69217279  .00001435  00000-0  11520-3 0  9994","OBJECT_NAME":"STARLINK-1399","REF_FRAME":"TEME","LAUNCH_DATE":"2020-06-04","TIME_SYSTEM":"UTC","ARG_OF_PERICENTER":"43.0626","INCLINATION":"53.0542","MEAN_ANOMALY":"317.0435","NORAD_CAT_ID":"45683","ECCENTRICITY":"0.00009300","BSTAR":"0.00011520000000","SEMIMAJOR_AXIS":"6925.316","GP_ID":"184281814","CLASSIFICATION_TYPE":"U","MEAN_MOTION_DOT":"0.00001435","CENTER_NAME":"EARTH","APOAPSIS":"547.825","PERIAPSIS":"546.537"},{"NORAD_CAT_ID":"45684","ECCENTRICITY":"0.00012550","BSTAR":"0.00008010200000","SEMIMAJOR_AXIS":"6925.368","GP_ID":"184282564","CLASSIFICATION_TYPE":"U","MEAN_MOTION_DOT":"0.00000912","CENTER_NAME":"EARTH","APOAPSIS":"548.102","PERIAPSIS":"546.364","REF_FRAME":"TEME","LAUNCH_DATE":"2020-06-04","TIME_SYSTEM":"UTC","ARG_OF_PERICENTER":"60.7566","MEAN_ANOMALY":"299.3548","INCLINATION":"53.0535","RA_OF_ASC_NODE":"236.9165","TLE_LINE2":"2 45684  53.0535 236.9165 0001255  60.7566 299.3548 15.06393662 71082","MEAN_MOTION":"15.06393662","TLE_LINE1":"1 45684U 20035AD  21250.67005403  .00000912  00000-0  80102-4 0  9999","OBJECT_NAME":"STARLINK-1401","OBJECT_ID":"2020-035AD","DECAY_DATE":null,"SITE":"AFETR","EPOCH":"2021-09-07T16:04:52.668192","OBJECT_TYPE":"PAYLOAD","RCS_SIZE":"LARGE","REV_AT_EPOCH":"7108","COUNTRY_CODE":"US","MEAN_ELEMENT_THEORY":"SGP4","PERIOD":"95.593","MEAN_MOTION_DDOT":"0.0000000000000","ELEMENT_SET_NO":"999","EPHEMERIS_TYPE":"0","FILE":"3110443"},{"BSTAR":"0.00007236400000","SEMIMAJOR_AXIS":"6925.356","NORAD_CAT_ID":"45685","ECCENTRICITY":"0.00009450","APOAPSIS":"547.876","CENTER_NAME":"EARTH","PERIAPSIS":"546.567","GP_ID":"184281312","MEAN_MOTION_DOT":"0.00000797","CLASSIFICATION_TYPE":"U","LAUNCH_DATE":"2020-06-04","TIME_SYSTEM":"UTC","REF_FRAME":"TEME","ARG_OF_PERICENTER":"53.1924","INCLINATION":"53.0542","MEAN_ANOMALY":"306.9152","TLE_LINE2":"2 45685  53.0542 236.9356 0000945  53.1924 306.9152 15.06397533 71089","MEAN_MOTION":"15.06397533","RA_OF_ASC_NODE":"236.9356","OBJECT_NAME":"STARLINK-1402","TLE_LINE1":"1 45685U 20035AE  21250.66636407  .00000797  00000-0  72364-4 0  9995","REV_AT_EPOCH":"7108","COUNTRY_CODE":"US","MEAN_ELEMENT_THEORY":"SGP4","MEAN_MOTION_DDOT":"0.0000000000000","PERIOD":"95.592","OBJECT_TYPE":"PAYLOAD","SITE":"AFETR","EPOCH":"2021-09-07T15:59:33.855648","DECAY_DATE":null,"OBJECT_ID":"2020-035AE","RCS_SIZE":"LARGE","FILE":"3110443","EPHEMERIS_TYPE":"0","ELEMENT_SET_NO":"999"},{"COUNTRY_CODE":"US","REV_AT_EPOCH":"7108","MEAN_ELEMENT_THEORY":"SGP4","MEAN_MOTION_DDOT":"0.0000000000000","PERIOD":"95.592","EPOCH":"2021-09-07T15:48:57.967200","SITE":"AFETR","OBJECT_TYPE":"PAYLOAD","DECAY_DATE":null,"OBJECT_ID":"2020-035AF","RCS_SIZE":"LARGE","FILE":"3110443","EPHEMERIS_TYPE":"0","ELEMENT_SET_NO":"999","MEAN_MOTION":"15.06398083","TLE_LINE2":"2 45686  53.0532 236.9690 0000944  44.4540 315.6525 15.06398083 71088","RA_OF_ASC_NODE":"236.9690","OBJECT_NAME":"STARLINK-1404","TLE_LINE1":"1 45686U 20035AF  21250.65900425 -.00000878  00000-0 -40093-4 0  9995","LAUNCH_DATE":"2020-06-04","TIME_SYSTEM":"UTC","REF_FRAME":"TEME","ARG_OF_PERICENTER":"44.4540","INCLINATION":"53.0532","MEAN_ANOMALY":"315.6525","BSTAR":"-0.00004009300000","SEMIMAJOR_AXIS":"6925.354","NORAD_CAT_ID":"45686","ECCENTRICITY":"0.00009440","APOAPSIS":"547.873","CENTER_NAME":"EARTH","PERIAPSIS":"546.566","GP_ID":"184281063","MEAN_MOTION_DOT":"-0.00000878","CLASSIFICATION_TYPE":"U"},{"ELEMENT_SET_NO":"999","FILE":"3110443","EPHEMERIS_TYPE":"0","RCS_SIZE":"LARGE","SITE":"AFETR","OBJECT_TYPE":"PAYLOAD","EPOCH":"2021-09-07T15:14:54.002400","DECAY_DATE":null,"OBJECT_ID":"2020-035AG","MEAN_MOTION_DDOT":"0.0000000000000","PERIOD":"95.644","MEAN_ELEMENT_THEORY":"SGP4","COUNTRY_CODE":"US","REV_AT_EPOCH":"7119","TLE_LINE1":"1 45687U 20035AG  21250.63534725  .00000651  00000-0  63853-4 0  9996","OBJECT_NAME":"STARLINK-1406","RA_OF_ASC_NODE":"227.0657","TLE_LINE2":"2 45687  53.0008 227.0657 0000830  27.3859 332.7172 15.05583101 71194","MEAN_MOTION":"15.05583101","INCLINATION":"53.0008","MEAN_ANOMALY":"332.7172","ARG_OF_PERICENTER":"27.3859","REF_FRAME":"TEME","TIME_SYSTEM":"UTC","LAUNCH_DATE":"2020-06-04","MEAN_MOTION_DOT":"0.00000651","CLASSIFICATION_TYPE":"U","GP_ID":"184282314","PERIAPSIS":"549.143","APOAPSIS":"550.293","CENTER_NAME":"EARTH","ECCENTRICITY":"0.00008300","NORAD_CAT_ID":"45687","SEMIMAJOR_AXIS":"6927.853","BSTAR":"0.00006385300000"},{"OBJECT_NAME":"STARLINK-1408","TLE_LINE1":"1 45688U 20035AH  21250.45260156  .00001334  00000-0  10843-3 0  9990","MEAN_MOTION":"15.06406669","TLE_LINE2":"2 45688  53.0529 237.8912 0001075  71.4114 288.6991 15.06406669 71048","RA_OF_ASC_NODE":"237.8912","FILE":"3110255","EPHEMERIS_TYPE":"0","ELEMENT_SET_NO":"999","COUNTRY_CODE":"US","REV_AT_EPOCH":"7104","MEAN_ELEMENT_THEORY":"SGP4","MEAN_MOTION_DDOT":"0.0000000000000","PERIOD":"95.592","SITE":"AFETR","EPOCH":"2021-09-07T10:51:44.774784","OBJECT_TYPE":"PAYLOAD","DECAY_DATE":null,"OBJECT_ID":"2020-035AH","RCS_SIZE":"LARGE","APOAPSIS":"547.938","CENTER_NAME":"EARTH","PERIAPSIS":"546.449","GP_ID":"184254542","CLASSIFICATION_TYPE":"U","MEAN_MOTION_DOT":"0.00001334","BSTAR":"0.00010843000000","SEMIMAJOR_AXIS":"6925.328","NORAD_CAT_ID":"45688","ECCENTRICITY":"0.00010750","ARG_OF_PERICENTER":"71.4114","INCLINATION":"53.0529","MEAN_ANOMALY":"288.6991","LAUNCH_DATE":"2020-06-04","TIME_SYSTEM":"UTC","REF_FRAME":"TEME"},{"OBJECT_NAME":"STARLINK-1413","TLE_LINE1":"1 45689U 20035AJ  21250.67742076  .00000776  00000-0  70972-4 0  9990","MEAN_MOTION":"15.06401386","TLE_LINE2":"2 45689  53.0522 236.8836 0000771  54.2852 305.8208 15.06401386 70993","RA_OF_ASC_NODE":"236.8836","EPHEMERIS_TYPE":"0","FILE":"3110443","ELEMENT_SET_NO":"999","MEAN_ELEMENT_THEORY":"SGP4","COUNTRY_CODE":"US","REV_AT_EPOCH":"7099","PERIOD":"95.592","MEAN_MOTION_DDOT":"0.0000000000000","DECAY_DATE":null,"OBJECT_ID":"2020-035AJ","SITE":"AFETR","EPOCH":"2021-09-07T16:15:29.153664","OBJECT_TYPE":"PAYLOAD","RCS_SIZE":"LARGE","CENTER_NAME":"EARTH","APOAPSIS":"547.743","PERIAPSIS":"546.675","GP_ID":"184280813","CLASSIFICATION_TYPE":"U","MEAN_MOTION_DOT":"0.00000776","BSTAR":"0.00007097200000","SEMIMAJOR_AXIS":"6925.344","NORAD_CAT_ID":"45689","ECCENTRICITY":"0.00007710","ARG_OF_PERICENTER":"54.2852","MEAN_ANOMALY":"305.8208","INCLINATION":"53.0522","LAUNCH_DATE":"2020-06-04","TIME_SYSTEM":"UTC","REF_FRAME":"TEME"}];
